{
    "links": {
        "self": "http://www.neowsapp.com/rest/v1/neo/3429688?api_key=iIulBulltgU6a56xZRHN4H3l9WmuAYTsLGpBGhQ2"
    },
    "id": "3429688",
    "neo_reference_id": "3429688",
    "name": "(2008 TD1)",
    "designation": "2008 TD1",
    "nasa_jpl_url": "http://ssd.jpl.nasa.gov/sbdb.cgi?sstr=3429688",
    "absolute_magnitude_h": 25.2,
    "estimated_diameter": {
        "kilometers": {
            "estimated_diameter_min": 0.0242412481,
            "estimated_diameter_max": 0.0542050786
        },
        "meters": {
            "estimated_diameter_min": 24.2412481101,
            "estimated_diameter_max": 54.2050786336
        },
        "miles": {
            "estimated_diameter_min": 0.0150628086,
            "estimated_diameter_max": 0.0336814639
        },
        "feet": {
            "estimated_diameter_min": 79.5316564495,
            "estimated_diameter_max": 177.8381901842
        }
    },
    "is_potentially_hazardous_asteroid": false,
    "close_approach_data": [
        {
            "close_approach_date": "2008-10-14",
            "close_approach_date_full": "2008-Oct-14 03:24",
            "epoch_date_close_approach": 1223954640000,
            "relative_velocity": {
                "kilometers_per_second": "4.7975122271",
                "kilometers_per_hour": "17271.0440174559",
                "miles_per_hour": "10731.5551007353"
            },
            "miss_distance": {
                "astronomical": "0.1206120744",
                "lunar": "46.9180969416",
                "kilometers": "18043309.426521528",
                "miles": "11211592.5891839664"
            },
            "orbiting_body": "Earth"
        }
    ],
    "orbital_data": {
        "orbit_id": "8",
        "orbit_determination_date": "2017-04-06 09:02:43",
        "first_observation_date": "2008-10-02",
        "last_observation_date": "2008-10-31",
        "data_arc_in_days": 29,
        "observations_used": 27,
        "orbit_uncertainty": "9",
        "minimum_orbit_intersection": ".117529",
        "jupiter_tisserand_invariant": "3.506",
        "epoch_osculation": "2454749.5",
        "eccentricity": ".4907979405486764",
        "semi_major_axis": "2.189488436701145",
        "inclination": "1.900169936383105",
        "ascending_node_longitude": "5.897563442647498",
        "orbital_period": "1183.347808228516",
        "perihelion_distance": "1.114892021113082",
        "perihelion_argument": "15.59072718749439",
        "aphelion_distance": "3.264084852289208",
        "perihelion_time": "2454755.401290772442",
        "mean_anomaly": "358.2046996974968",
        "mean_motion": ".3042216307806611",
        "equinox": "J2000",
        "orbit_class": {
            "orbit_class_type": "AMO",
            "orbit_class_description": "Near-Earth asteroid orbits similar to that of 1221 Amor",
            "orbit_class_range": "1.017 AU < q (perihelion) < 1.3 AU"
        }
    },
    "is_sentry_object": false
}